{
  "norad_id": 66017,
  "name": "STARLINK-35398",
  "history": [
    {
      "epoch": "2026-04-14T22:26:05.136288Z",
      "apogee_km": 475.83243311055503,
      "perigee_km": 474.56867766534106,
      "latitude_deg": 3.400991710402202e-05,
      "longitude_deg": 116.01434903518795,
      "height_km": 476.2151096722803,
      "semi_major_axis_km": 6853.337555387948,
      "eccentricity": 9.22e-05,
      "inclination_deg": 53.158,
      "raan_deg": 295.6398,
      "arg_perigee_deg": 100.5977,
      "mean_anomaly_deg": 259.5128,
      "mean_motion_rev_day": 15.30204861
    },
    {
      "epoch": "2026-04-16T18:19:34.675392Z",
      "apogee_km": 476.23260082166416,
      "perigee_km": 474.16700510925057,
      "latitude_deg": -4.2468216050270306e-05,
      "longitude_deg": 167.34145455697106,
      "height_km": 476.3168467565165,
      "semi_major_axis_km": 6853.336802965457,
      "eccentricity": 0.0001507,
      "inclination_deg": 53.1596,
      "raan_deg": 287.1426,
      "arg_perigee_deg": 102.2586,
      "mean_anomaly_deg": 257.8583,
      "mean_motion_rev_day": 15.30205113
    },
    {
      "epoch": "2026-04-17T20:58:28.967232Z",
      "apogee_km": 475.95686015990213,
      "perigee_km": 474.4832513257761,
      "latitude_deg": 1.4417990499666381e-05,
      "longitude_deg": 121.36327090768245,
      "height_km": 476.3075540948396,
      "semi_major_axis_km": 6853.357055742838,
      "eccentricity": 0.00010751,
      "inclination_deg": 53.159,
      "raan_deg": 281.985,
      "arg_perigee_deg": 104.8813,
      "mean_anomaly_deg": 255.2307,
      "mean_motion_rev_day": 15.3019833
    },
    {
      "epoch": "2026-04-18T20:29:16.833120Z",
      "apogee_km": 476.05780512549154,
      "perigee_km": 474.29513290126033,
      "latitude_deg": 4.335621519450957e-07,
      "longitude_deg": 123.14996267023186,
      "height_km": 475.9692526000011,
      "semi_major_axis_km": 6853.313469013376,
      "eccentricity": 0.0001286,
      "inclination_deg": 53.1588,
      "raan_deg": 277.4368,
      "arg_perigee_deg": 83.1472,
      "mean_anomaly_deg": 276.9675,
      "mean_motion_rev_day": 15.30212928
    },
    {
      "epoch": "2026-04-19T20:00:04.718016Z",
      "apogee_km": 475.8877509561089,
      "perigee_km": 474.51845360367406,
      "latitude_deg": -1.528094801507554e-05,
      "longitude_deg": 124.9337725389896,
      "height_km": 476.10397449489983,
      "semi_major_axis_km": 6853.340102279892,
      "eccentricity": 9.99e-05,
      "inclination_deg": 53.1593,
      "raan_deg": 272.8858,
      "arg_perigee_deg": 90.2094,
      "mean_anomaly_deg": 269.9021,
      "mean_motion_rev_day": 15.30204008
    },
    {
      "epoch": "2026-04-20T10:06:33.782112Z",
      "apogee_km": 476.112218916709,
      "perigee_km": 474.3626894860399,
      "latitude_deg": 2.486771857160472e-06,
      "longitude_deg": -89.99811374889762,
      "height_km": 476.1465657201928,
      "semi_major_axis_km": 6853.374454201374,
      "eccentricity": 0.00012764,
      "inclination_deg": 53.1597,
      "raan_deg": 270.1544,
      "arg_perigee_deg": 90.7258,
      "mean_anomaly_deg": 269.3889,
      "mean_motion_rev_day": 15.30192503
    },
    {
      "epoch": "2026-04-21T15:53:33.953856Z",
      "apogee_km": 475.80113825625085,
      "perigee_km": 474.5140895277618,
      "latitude_deg": 2.1954640252561868e-05,
      "longitude_deg": 176.26292214556977,
      "height_km": 476.12499655430446,
      "semi_major_axis_km": 6853.294613892006,
      "eccentricity": 9.39e-05,
      "inclination_deg": 53.1598,
      "raan_deg": 264.3893,
      "arg_perigee_deg": 96.1438,
      "mean_anomaly_deg": 263.967,
      "mean_motion_rev_day": 15.30219243
    },
    {
      "epoch": "2026-04-22T16:58:25.624128Z",
      "apogee_km": 476.24365457865315,
      "perigee_km": 474.19038971361806,
      "latitude_deg": -6.346616555204574e-06,
      "longitude_deg": 154.1665647860829,
      "height_km": 475.91601096694103,
      "semi_major_axis_km": 6853.354022146135,
      "eccentricity": 0.0001498,
      "inclination_deg": 53.1603,
      "raan_deg": 259.5383,
      "arg_perigee_deg": 78.8319,
      "mean_anomaly_deg": 281.285,
      "mean_motion_rev_day": 15.30199346
    },
    {
      "epoch": "2026-04-23T02:22:44.621184Z",
      "apogee_km": 475.80442586765184,
      "perigee_km": 474.6070098279897,
      "latitude_deg": 6.649251447157562e-05,
      "longitude_deg": 10.878502770960186,
      "height_km": 475.77461953813435,
      "semi_major_axis_km": 6853.3427178478205,
      "eccentricity": 8.736e-05,
      "inclination_deg": 53.1579,
      "raan_deg": 257.7156,
      "arg_perigee_deg": 56.5897,
      "mean_anomaly_deg": 303.5188,
      "mean_motion_rev_day": 15.30203132
    },
    {
      "epoch": "2026-04-24T16:00:01.312704Z",
      "apogee_km": 475.97329324824204,
      "perigee_km": 474.4861126736987,
      "latitude_deg": 1.0031861097540661e-05,
      "longitude_deg": 157.73335847912966,
      "height_km": 476.0929284451407,
      "semi_major_axis_km": 6853.36670296097,
      "eccentricity": 0.0001085,
      "inclination_deg": 53.1578,
      "raan_deg": 250.4351,
      "arg_perigee_deg": 87.3127,
      "mean_anomaly_deg": 272.7998,
      "mean_motion_rev_day": 15.30195099
    },
    {
      "epoch": "2026-04-25T15:30:48.948768Z",
      "apogee_km": 476.09846947040023,
      "perigee_km": 474.35634423817646,
      "latitude_deg": 1.439234777240172e-05,
      "longitude_deg": 159.5179236553216,
      "height_km": 475.8332115330242,
      "semi_major_axis_km": 6853.364406854288,
      "eccentricity": 0.0001271,
      "inclination_deg": 53.1574,
      "raan_deg": 245.8838,
      "arg_perigee_deg": 70.4075,
      "mean_anomaly_deg": 289.7063,
      "mean_motion_rev_day": 15.30195868
    },
    {
      "epoch": "2026-04-26T15:01:36.760224Z",
      "apogee_km": 475.98271749726337,
      "perigee_km": 474.3654731449906,
      "latitude_deg": 3.2237613069021117e-06,
      "longitude_deg": 161.30414512476347,
      "height_km": 475.836126329374,
      "semi_major_axis_km": 6853.311095321127,
      "eccentricity": 0.00011799,
      "inclination_deg": 53.1584,
      "raan_deg": 241.3349,
      "arg_perigee_deg": 73.0255,
      "mean_anomaly_deg": 287.0875,
      "mean_motion_rev_day": 15.30213723
    },
    {
      "epoch": "2026-04-27T17:40:31.757088Z",
      "apogee_km": 476.0897079069491,
      "perigee_km": 474.3722538909351,
      "latitude_deg": -2.1436570208519165e-05,
      "longitude_deg": 115.32305442987702,
      "height_km": 476.14491697621366,
      "semi_major_axis_km": 6853.367980898942,
      "eccentricity": 0.0001253,
      "inclination_deg": 53.1589,
      "raan_deg": 236.1774,
      "arg_perigee_deg": 91.0646,
      "mean_anomaly_deg": 269.0498,
      "mean_motion_rev_day": 15.30194671
    },
    {
      "epoch": "2026-04-28T14:03:13.305024Z",
      "apogee_km": 476.0340109408253,
      "perigee_km": 474.34809224013406,
      "latitude_deg": 1.697699448649928e-05,
      "longitude_deg": 164.87086402754232,
      "height_km": 475.8126789784108,
      "semi_major_axis_km": 6853.328051590479,
      "eccentricity": 0.000123,
      "inclination_deg": 53.1591,
      "raan_deg": 232.2352,
      "arg_perigee_deg": 70.8516,
      "mean_anomaly_deg": 289.2618,
      "mean_motion_rev_day": 15.30208044
    },
    {
      "epoch": "2026-04-29T16:42:07.471584Z",
      "apogee_km": 475.9188452093358,
      "perigee_km": 474.4604572979506,
      "latitude_deg": -2.059940149597663e-05,
      "longitude_deg": 118.89233244055256,
      "height_km": 475.97896263057055,
      "semi_major_axis_km": 6853.326651253643,
      "eccentricity": 0.0001064,
      "inclination_deg": 53.1606,
      "raan_deg": 227.0768,
      "arg_perigee_deg": 81.3927,
      "mean_anomaly_deg": 278.7194,
      "mean_motion_rev_day": 15.30208513
    }
  ]
}